NORAD_CAT_ID,OBJECT_NAME,OBJECT_TYPE,EPOCH,MEAN_MOTION,ECCENTRICITY,INCLINATION,RA_OF_ASC_NODE,ARG_OF_PERICENTER,MEAN_ANOMALY,BSTAR,MEAN_MOTION_DOT,MEAN_MOTION_DDOT,TLE_LINE0,TLE_LINE1,TLE_LINE2,SEMIMAJOR_AXIS,PERIOD,APOGEE,PERIGEE,DECAYED
53964.0,STARLINK-4633,PAYLOAD,2023-08-24 13:24:02,15.08841339,0.0001211,53.2169,70.8176,100.9811,259.1318,3.6356e-05,2.91e-06,0.0,0 STARLINK-4633,1 53964U 22125A   23236.55835788  .00000291  00000-0  36356-4 0  9993,2 53964  53.2169  70.8176 0001211 100.9811 259.1318 15.08841339 49272,6917.876,95.437,540.579,538.904,0.0
53964.0,STARLINK-4633,PAYLOAD,2023-08-25 19:36:21,15.08843284,0.0001124,53.2164,65.1675,92.8604,267.2517,0.00013552,1.87e-05,0.0,0 STARLINK-4633,1 53964U 22125A   23237.81691923  .00001870  00000-0  13552-3 0  9990,2 53964  53.2164  65.1675 0001124  92.8604 267.2517 15.08843284 49463,6917.87,95.437,540.513,538.958,0.0
53964.0,STARLINK-4633,PAYLOAD,2023-08-26 11:30:13,15.0883648,0.0001157,53.216,62.1944,93.3921,266.7203,0.00013337,1.835e-05,0.0,0 STARLINK-4633,1 53964U 22125A   23238.47932429  .00001835  00000-0  13337-3 0  9994,2 53964  53.2160  62.1944 0001157  93.3921 266.7203 15.08836480 49566,6917.891,95.438,540.557,538.956,0.0
53964.0,STARLINK-4633,PAYLOAD,2023-08-26 13:05:36,15.08836675,0.0001308,53.2175,61.8978,96.7301,263.384,0.00014341,1.995e-05,0.0,0 STARLINK-4633,1 53964U 22125A   23238.54556457  .00001995  00000-0  14341-3 0  9998,2 53964  53.2175  61.8978 0001308  96.7301 263.3840 15.08836675 49502,6917.891,95.438,540.66,538.851,0.0
53964.0,STARLINK-4633,PAYLOAD,2023-08-26 19:27:09,15.08837277,0.0001145,53.2164,60.7071,91.2057,268.9067,0.00015255,2.141e-05,0.0,0 STARLINK-4633,1 53964U 22125A   23238.81052537  .00002141  00000-0  15255-3 0  9997,2 53964  53.2164  60.7071 0001145  91.2057 268.9067 15.08837277 49544,6917.889,95.438,540.546,538.962,0.0
53964.0,STARLINK-4633,PAYLOAD,2023-08-27 17:42:33,15.08840961,0.0001202,53.2175,56.5452,92.1788,267.9342,0.00011143,1.486e-05,0.0,0 STARLINK-4633,1 53964U 22125A   23239.73788537  .00001486  00000-0  11143-3 0  9998,2 53964  53.2175  56.5452 0001202  92.1788 267.9342 15.08840961 49759,6917.877,95.437,540.574,538.911,0.0
53964.0,STARLINK-4633,PAYLOAD,2023-08-27 19:17:56,15.08844408,0.000121,53.2174,56.2475,90.423,269.69,0.00016374,2.319e-05,0.0,0 STARLINK-4633,1 53964U 22125A   23239.80412364  .00002319  00000-0  16374-3 0  9995,2 53964  53.2174  56.2475 0001210  90.4230 269.6900 15.08844408 49694,6917.867,95.437,540.569,538.895,0.0
53964.0,STARLINK-4633,PAYLOAD,2023-08-28 15:57:57,15.08836587,0.0001271,53.217,52.3823,66.1645,293.9481,6.9548e-05,8.19e-06,0.0,0 STARLINK-4633,1 53964U 22125A   23240.66525043  .00000819  00000-0  69548-4 0  9995,2 53964  53.2170  52.3823 0001271  66.1645 293.9481 15.08836587 49896,6917.891,95.438,540.635,538.877,0.0
53964.0,STARLINK-4633,PAYLOAD,2023-08-28 20:44:06,15.08841546,0.0001351,53.217,51.4902,67.2122,292.9013,0.00019791,2.863e-05,0.0,0 STARLINK-4633,1 53964U 22125A   23240.86396866  .00002863  00000-0  19791-3 0  9991,2 53964  53.2170  51.4902 0001351  67.2122 292.9013 15.08841546 49852,6917.876,95.437,540.675,538.806,0.0
53964.0,STARLINK-4633,PAYLOAD,2023-08-29 17:24:07,15.08842543,0.0001076,53.2167,47.6225,90.892,269.2196,0.00010357,1.361e-05,0.0,0 STARLINK-4633,1 53964U 22125A   23241.72508820  .00001361  00000-0  10357-3 0  9993,2 53964  53.2167  47.6225 0001076  90.8920 269.2196 15.08842543 50056,6917.873,95.437,540.482,538.993,0.0
53964.0,STARLINK-4633,PAYLOAD,2023-08-29 18:59:30,15.08846542,0.0001191,53.2173,47.3232,104.6602,255.4523,0.00014382,2.002e-05,0.0,0 STARLINK-4633,1 53964U 22125A   23241.79132732  .00002002  00000-0  14382-3 0  9990,2 53964  53.2173  47.3232 0001191 104.6602 255.4523 15.08846542 49992,6917.86,95.437,540.549,538.901,0.0
53964.0,STARLINK-4633,PAYLOAD,2023-08-30 10:53:22,15.08835822,0.0001068,53.2174,44.3544,55.4216,304.6877,9.1091e-05,1.162e-05,0.0,0 STARLINK-4633,1 53964U 22125A   23242.45373156  .00001162  00000-0  91091-4 0  9990,2 53964  53.2174  44.3544 0001068  55.4216 304.6877 15.08835822 50162,6917.893,95.438,540.497,539.019,0.0
53964.0,STARLINK-4633,PAYLOAD,2023-08-30 17:14:45,15.09057444,0.0004237,53.2172,43.1665,104.4619,255.6843,0.0035776,0.00057463,0.0,0 STARLINK-4633,1 53964U 22125A   23242.71858472  .00057463  00000-0  35776-2 0  9999,2 53964  53.2172  43.1665 0004237 104.4619 255.6843 15.09057444 50136,6917.216,95.424,542.012,536.15,0.0
53964.0,STARLINK-4633,PAYLOAD,2023-08-31 17:05:40,15.08857158,9.88e-05,53.2173,38.7069,83.596,276.5145,0.00057252,8.84e-05,0.0,0 STARLINK-4633,1 53964U 22125A   23243.71227687  .00008840  00000-0  57252-3 0  9997,2 53964  53.2173  38.7069 0000988  83.5960 276.5145 15.08857158 50350,6917.828,95.436,540.376,539.009,0.0
53964.0,STARLINK-4633,PAYLOAD,2023-08-31 21:51:51,15.08814242,0.000143,53.2173,37.8155,78.8577,281.2576,-0.00021136,-3.648e-05,0.0,0 STARLINK-4633,1 53964U 22125A   23243.91101750 -.00003648  00000-0 -21136-3 0  9996,2 53964  53.2173  37.8155 0001430  78.8577 281.2576 15.08814242 50314,6917.959,95.439,540.813,538.835,0.0
53964.0,STARLINK-4633,PAYLOAD,2023-09-01 10:34:58,15.08801875,0.0001366,53.2169,35.4374,89.0548,271.06,0.0010138,0.00015867,0.0,0 STARLINK-4633,1 53964U 22125A   23244.44094965  .00015867  00000-0  10138-2 0  9997,2 53964  53.2169  35.4374 0001366  89.0548 271.0600 15.08801875 50397,6917.997,95.44,540.807,538.917,0.0
53964.0,STARLINK-4633,PAYLOAD,2023-09-01 20:07:15,15.08839197,0.0003641,53.2159,33.6486,107.0984,253.0407,0.0011453,0.00017987,0.0,0 STARLINK-4633,1 53964U 22125A   23244.83837281  .00017987  00000-0  11453-2 0  9992,2 53964  53.2159  33.6486 0003641 107.0984 253.0407 15.08839197 50521,6917.883,95.438,542.267,537.229,0.0
53964.0,STARLINK-4633,PAYLOAD,2023-09-02 02:28:44,15.08884085,0.0003554,53.2155,32.4589,113.6051,246.5315,-0.0020325,-0.00032534,0.0,0 STARLINK-4633,1 53964U 22125A   23245.10329266 -.00032534  00000-0 -20325-2 0  9997,2 53964  53.2155  32.4589 0003554 113.6051 246.5315 15.08884085 50564,6917.746,95.435,542.069,537.152,0.0
53964.0,STARLINK-4633,PAYLOAD,2023-09-02 10:25:43,15.08837906,0.0001208,53.2182,30.9712,87.035,273.078,9.3603e-05,1.202e-05,0.0,0 STARLINK-4633,1 53964U 22125A   23245.43453305  .00001202  00000-0  93603-4 0  9992,2 53964  53.2182  30.9712 0001208  87.0350 273.0780 15.08837906 50612,6917.887,95.438,540.587,538.916,0.0
53964.0,STARLINK-4633,PAYLOAD,2023-09-02 13:36:29,15.08845766,0.0001388,53.2192,30.376,85.711,274.404,0.0001425,1.981e-05,0.0,0 STARLINK-4633,1 53964U 22125A   23245.56700921  .00001981  00000-0  14250-3 0  9999,2 53964  53.2192  30.3760 0001388  85.7110 274.4040 15.08845766 50569,6917.863,95.437,540.688,538.768,0.0
53964.0,STARLINK-4633,PAYLOAD,2023-09-02 19:58:01,15.08851527,0.0001191,53.2166,29.1862,103.5979,256.5145,0.00030429,4.56e-05,0.0,0 STARLINK-4633,1 53964U 22125A   23245.83196501  .00004560  00000-0  30429-3 0  9994,2 53964  53.2166  29.1862 0001191 103.5979 256.5145 15.08851527 50607,6917.845,95.437,540.534,538.886,0.0
53964.0,STARLINK-4633,PAYLOAD,2023-09-03 02:19:34,15.08849475,0.0001063,53.2162,27.9954,92.0686,268.0428,0.00017019,2.422e-05,0.0,0 STARLINK-4633,1 53964U 22125A   23246.09692353  .00002422  00000-0  17019-3 0  9994,2 53964  53.2162  27.9954 0001063  92.0686 268.0428 15.08849475 50719,6917.851,95.437,540.452,538.981,0.0
53964.0,STARLINK-4633,PAYLOAD,2023-09-03 10:16:30,15.0884208,0.0001619,53.2167,26.5114,96.3437,263.774,2.0756e-05,4.2e-07,0.0,0 STARLINK-4633,1 53964U 22125A   23246.42812924  .00000042  00000-0  20756-4 0  9998,2 53964  53.2167  26.5114 0001619  96.3437 263.7740 15.08842080 50764,6917.874,95.437,540.859,538.619,0.0
53964.0,STARLINK-4633,PAYLOAD,2023-09-04 02:10:22,15.08835725,0.000175,53.219,23.5395,101.3767,258.7421,7.2917e-05,8.72e-06,0.0,0 STARLINK-4633,1 53964U 22125A   23247.09053271  .00000872  00000-0  72917-4 0  9991,2 53964  53.2190  23.5395 0001750 101.3767 258.7421 15.08835725 50866,6917.893,95.438,540.969,538.548,0.0
53964.0,STARLINK-4633,PAYLOAD,2023-09-04 14:53:27,15.08834201,0.0001448,53.2194,21.1611,102.3081,257.8073,-1.83e-05,-5.79e-06,0.0,0 STARLINK-4633,1 53964U 22125A   23247.62046051 -.00000579  00000-0 -18300-4 0  9990,2 53964  53.2194  21.1611 0001448 102.3081 257.8073 15.08834201 50949,6917.898,95.438,540.765,538.761,0.0
53964.0,STARLINK-4633,PAYLOAD,2023-09-05 08:22:42,15.08838987,0.0001448,53.2198,17.8868,91.5933,268.5225,4.8329e-05,4.81e-06,0.0,0 STARLINK-4633,1 53964U 22125A   23248.34909762  .00000481  00000-0  48329-4 0  9991,2 53964  53.2198  17.8868 0001448  91.5933 268.5225 15.08838987 50981,6917.883,95.438,540.75,538.747,0.0
53964.0,STARLINK-4633,PAYLOAD,2023-09-06 11:24:12,15.08912123,0.0001879,53.2189,12.8324,78.5389,281.5814,-0.00097476,-0.00015799,0.0,0 STARLINK-4633,1 53964U 22125A   23249.47514616 -.00015799  00000-0 -97476-3 0  9992,2 53964  53.2189  12.8324 0001879  78.5389 281.5814 15.08912123 51155,6917.66,95.433,540.825,538.225,0.0
53964.0,STARLINK-4633,PAYLOAD,2023-09-06 17:45:47,15.08851649,0.0001281,53.2189,11.6423,98.7421,261.3716,0.00020226,2.934e-05,0.0,0 STARLINK-4633,1 53964U 22125A   23249.74012743  .00002934  00000-0  20226-3 0  9990,2 53964  53.2189  11.6423 0001281  98.7421 261.3716 15.08851649 51264,6917.845,95.437,540.596,538.824,0.0
53964.0,STARLINK-4633,PAYLOAD,2023-09-07 01:42:43,15.08840805,0.0001688,53.219,10.1569,83.6592,276.4592,0.00010364,1.362e-05,0.0,0 STARLINK-4633,1 53964U 22125A   23250.07133847  .00001362  00000-0  10364-3 0  9993,2 53964  53.2190  10.1569 0001688  83.6592 276.4592 15.08840805 51311,6917.878,95.438,540.911,538.575,0.0
53964.0,STARLINK-4633,PAYLOAD,2023-09-07 09:39:39,15.08842034,0.0001244,53.219,8.6695,89.7282,270.3853,3.7638e-05,3.11e-06,0.0,0 STARLINK-4633,1 53964U 22125A   23250.40253755  .00000311  00000-0  37638-4 0  9998,2 53964  53.2190   8.6695 0001244  89.7282 270.3853 15.08842034 51290,6917.874,95.437,540.6,538.879,0.0
